start=new Date('2022-10-19T00:00:00.000Z').valueOf();
sats=[{"OBJECT_NAME":"STARLINK-3460","EPOCH":"2022-10-18T14:24:29.484000","EPHEMERIS_TYPE":"0","INCLINATION":"53.2170","NORAD_CAT_ID":"51755","OBJECT_TYPE":"PAYLOAD","PERIOD":"95.438","MEAN_MOTION_DOT":"-0.00000926","CENTER_NAME":"EARTH","BSTAR":"-0.00004008700000","TIME_SYSTEM":"UTC","GP_ID":"215530208","MEAN_ELEMENT_THEORY":"SGP4","REV_AT_EPOCH":"3679","TLE_LINE1":"1 51755U 22016AT  22291.60034125 -.00000926  00000-0 -40087-4 0  9993","SITE":"AFETR","SEMIMAJOR_AXIS":"6917.893","MEAN_ANOMALY":"320.2264","PERIAPSIS":"538.351","TLE_LINE2":"2 51755  53.2170 107.1266 0002034  39.8877 320.2264 15.08835898 36796","COUNTRY_CODE":"US","DECAY_DATE":null,"LAUNCH_DATE":"2022-02-21","ECCENTRICITY":"0.00020340","REF_FRAME":"TEME","RCS_SIZE":"LARGE","APOAPSIS":"541.165","MEAN_MOTION_DDOT":"0.0000000000000","RA_OF_ASC_NODE":"107.1266","CLASSIFICATION_TYPE":"U","FILE":"3621750","MEAN_MOTION":"15.08835898","ELEMENT_SET_NO":"999","OBJECT_ID":"2022-016AT","ARG_OF_PERICENTER":"39.8877"},{"SEMIMAJOR_AXIS":"6917.891","SITE":"AFETR","GP_ID":"215529456","TIME_SYSTEM":"UTC","TLE_LINE1":"1 51756U 22016AU  22291.76961877  .00000825  00000-0  69960-4 0  9991","MEAN_ELEMENT_THEORY":"SGP4","REV_AT_EPOCH":"3682","BSTAR":"0.00006996000000","CENTER_NAME":"EARTH","MEAN_MOTION_DOT":"0.00000825","PERIOD":"95.438","OBJECT_TYPE":"PAYLOAD","NORAD_CAT_ID":"51756","INCLINATION":"53.2190","OBJECT_NAME":"STARLINK-3513","EPHEMERIS_TYPE":"0","EPOCH":"2022-10-18T18:28:15.061728","ARG_OF_PERICENTER":"43.1397","ELEMENT_SET_NO":"999","FILE":"3621750","OBJECT_ID":"2022-016AU","MEAN_MOTION":"15.08836556","CLASSIFICATION_TYPE":"U","MEAN_MOTION_DDOT":"0.0000000000000","RA_OF_ASC_NODE":"106.3715","REF_FRAME":"TEME","RCS_SIZE":"LARGE","APOAPSIS":"541.146","ECCENTRICITY":"0.00020100","DECAY_DATE":null,"LAUNCH_DATE":"2022-02-21","TLE_LINE2":"2 51756  53.2190 106.3715 0002010  43.1397 316.9753 15.08836556 36829","PERIAPSIS":"538.365","COUNTRY_CODE":"US","MEAN_ANOMALY":"316.9753"},{"MEAN_ANOMALY":"323.0205","TLE_LINE2":"2 51757  53.2180 106.9779 0002118  37.0933 323.0205 15.08840047 36801","PERIAPSIS":"538.280","COUNTRY_CODE":"US","DECAY_DATE":null,"LAUNCH_DATE":"2022-02-21","ECCENTRICITY":"0.00021180","REF_FRAME":"TEME","APOAPSIS":"541.210","RCS_SIZE":"LARGE","MEAN_MOTION_DDOT":"0.0000000000000","RA_OF_ASC_NODE":"106.9779","ELEMENT_SET_NO":"999","FILE":"3621750","MEAN_MOTION":"15.08840047","OBJECT_ID":"2022-016AV","CLASSIFICATION_TYPE":"U","ARG_OF_PERICENTER":"37.0933","OBJECT_NAME":"STARLINK-3459","EPHEMERIS_TYPE":"0","EPOCH":"2022-10-18T15:12:10.819584","NORAD_CAT_ID":"51757","INCLINATION":"53.2180","PERIOD":"95.438","OBJECT_TYPE":"PAYLOAD","MEAN_MOTION_DOT":"0.00001191","CENTER_NAME":"EARTH","BSTAR":"0.00009294900000","GP_ID":"215529706","TIME_SYSTEM":"UTC","TLE_LINE1":"1 51757U 22016AV  22291.63345856  .00001191  00000-0  92949-4 0  9991","MEAN_ELEMENT_THEORY":"SGP4","REV_AT_EPOCH":"3680","SITE":"AFETR","SEMIMAJOR_AXIS":"6917.880"},{"REF_FRAME":"TEME","RCS_SIZE":"LARGE","APOAPSIS":"541.111","MEAN_MOTION_DDOT":"0.0000000000000","RA_OF_ASC_NODE":"106.3861","OBJECT_ID":"2022-016AW","FILE":"3621750","ELEMENT_SET_NO":"999","MEAN_MOTION":"15.08835466","CLASSIFICATION_TYPE":"U","ARG_OF_PERICENTER":"49.6391","MEAN_ANOMALY":"310.4771","TLE_LINE2":"2 51758  53.2180 106.3861 0001954  49.6391 310.4771 15.08835466 37967","PERIAPSIS":"538.407","COUNTRY_CODE":"US","DECAY_DATE":null,"LAUNCH_DATE":"2022-02-21","ECCENTRICITY":"0.00019540","BSTAR":"0.00004618200000","GP_ID":"215529949","TIME_SYSTEM":"UTC","TLE_LINE1":"1 51758U 22016AW  22291.76322193  .00000447  00000-0  46182-4 0  9996","REV_AT_EPOCH":"3796","MEAN_ELEMENT_THEORY":"SGP4","SITE":"AFETR","SEMIMAJOR_AXIS":"6917.894","OBJECT_NAME":"STARLINK-3458","EPHEMERIS_TYPE":"0","EPOCH":"2022-10-18T18:19:02.374752","NORAD_CAT_ID":"51758","INCLINATION":"53.2180","PERIOD":"95.438","OBJECT_TYPE":"PAYLOAD","MEAN_MOTION_DOT":"0.00000447","CENTER_NAME":"EARTH"},{"SEMIMAJOR_AXIS":"6917.891","SITE":"AFETR","GP_ID":"215530708","TIME_SYSTEM":"UTC","TLE_LINE1":"1 51759U 22016AX  22291.76226434 -.00000153  00000-0  85092-5 0  9997","MEAN_ELEMENT_THEORY":"SGP4","REV_AT_EPOCH":"3682","BSTAR":"0.00000850920000","CENTER_NAME":"EARTH","MEAN_MOTION_DOT":"-0.00000153","OBJECT_TYPE":"PAYLOAD","PERIOD":"95.438","NORAD_CAT_ID":"51759","INCLINATION":"53.2191","OBJECT_NAME":"STARLINK-3456","EPHEMERIS_TYPE":"0","EPOCH":"2022-10-18T18:17:39.638976","ARG_OF_PERICENTER":"58.3071","ELEMENT_SET_NO":"999","FILE":"3621750","OBJECT_ID":"2022-016AX","MEAN_MOTION":"15.08836587","CLASSIFICATION_TYPE":"U","MEAN_MOTION_DDOT":"0.0000000000000","RA_OF_ASC_NODE":"106.3990","REF_FRAME":"TEME","APOAPSIS":"540.848","RCS_SIZE":"LARGE","ECCENTRICITY":"0.00015790","DECAY_DATE":null,"LAUNCH_DATE":"2022-02-21","TLE_LINE2":"2 51759  53.2191 106.3990 0001579  58.3071 301.8075 15.08836587 36828","PERIAPSIS":"538.663","COUNTRY_CODE":"US","MEAN_ANOMALY":"301.8075"},{"OBJECT_TYPE":"PAYLOAD","PERIOD":"95.437","CENTER_NAME":"EARTH","MEAN_MOTION_DOT":"0.00001784","OBJECT_NAME":"STARLINK-3622","EPOCH":"2022-10-17T23:56:44.879424","EPHEMERIS_TYPE":"0","INCLINATION":"53.2166","NORAD_CAT_ID":"51768","SITE":"AFWTR","SEMIMAJOR_AXIS":"6917.849","BSTAR":"0.00013011000000","TIME_SYSTEM":"UTC","GP_ID":"215499367","MEAN_ELEMENT_THEORY":"SGP4","REV_AT_EPOCH":"3704","TLE_LINE1":"1 51768U 22017A   22290.99774166  .00001784  00000-0  13011-3 0  9992","DECAY_DATE":null,"LAUNCH_DATE":"2022-02-25","ECCENTRICITY":"0.00019250","MEAN_ANOMALY":"304.3099","PERIAPSIS":"538.382","TLE_LINE2":"2 51768  53.2166 139.8207 0001925  55.8076 304.3099 15.08850242 37047","COUNTRY_CODE":"US","CLASSIFICATION_TYPE":"U","FILE":"3621474","ELEMENT_SET_NO":"999","MEAN_MOTION":"15.08850242","OBJECT_ID":"2022-017A","ARG_OF_PERICENTER":"55.8076","REF_FRAME":"TEME","APOAPSIS":"541.046","RCS_SIZE":"LARGE","MEAN_MOTION_DDOT":"0.0000000000000","RA_OF_ASC_NODE":"139.8207"},{"ARG_OF_PERICENTER":"53.4899","CLASSIFICATION_TYPE":"U","FILE":"3621750","MEAN_MOTION":"15.08835460","ELEMENT_SET_NO":"999","OBJECT_ID":"2022-017B","MEAN_MOTION_DDOT":"0.0000000000000","RA_OF_ASC_NODE":"135.9938","REF_FRAME":"TEME","RCS_SIZE":"LARGE","APOAPSIS":"541.129","ECCENTRICITY":"0.00019800","DECAY_DATE":null,"LAUNCH_DATE":"2022-02-25","PERIAPSIS":"538.390","TLE_LINE2":"2 51769  53.2177 135.9938 0001980  53.4899 306.6275 15.08835460 35736","COUNTRY_CODE":"US","MEAN_ANOMALY":"306.6275","SEMIMAJOR_AXIS":"6917.894","SITE":"AFWTR","TIME_SYSTEM":"UTC","GP_ID":"215529207","MEAN_ELEMENT_THEORY":"SGP4","REV_AT_EPOCH":"3573","TLE_LINE1":"1 51769U 22017B   22291.85151032  .00000382  00000-0  42112-4 0  9998","BSTAR":"0.00004211200000","MEAN_MOTION_DOT":"0.00000382","CENTER_NAME":"EARTH","OBJECT_TYPE":"PAYLOAD","PERIOD":"95.438","INCLINATION":"53.2177","NORAD_CAT_ID":"51769","OBJECT_NAME":"STARLINK-3621","EPOCH":"2022-10-18T20:26:10.491648","EPHEMERIS_TYPE":"0"},{"COUNTRY_CODE":"US","TLE_LINE2":"2 51770  53.2168 135.9688 0001851  51.7135 308.4023 15.08850106 35747","PERIAPSIS":"538.434","MEAN_ANOMALY":"308.4023","ECCENTRICITY":"0.00018510","LAUNCH_DATE":"2022-02-25","DECAY_DATE":null,"RA_OF_ASC_NODE":"135.9688","MEAN_MOTION_DDOT":"0.0000000000000","APOAPSIS":"540.995","RCS_SIZE":"LARGE","REF_FRAME":"TEME","ARG_OF_PERICENTER":"51.7135","ELEMENT_SET_NO":"999","FILE":"3621750","MEAN_MOTION":"15.08850106","OBJECT_ID":"2022-017C","CLASSIFICATION_TYPE":"U","NORAD_CAT_ID":"51770","INCLINATION":"53.2168","EPHEMERIS_TYPE":"0","EPOCH":"2022-10-18T20:31:27.381792","OBJECT_NAME":"STARLINK-3612","CENTER_NAME":"EARTH","MEAN_MOTION_DOT":"-0.00004555","OBJECT_TYPE":"PAYLOAD","PERIOD":"95.437","TLE_LINE1":"1 51770U 22017C   22291.85517803 -.00004555  00000-0 -26817-3 0  9993","REV_AT_EPOCH":"3574","MEAN_ELEMENT_THEORY":"SGP4","GP_ID":"215530449","TIME_SYSTEM":"UTC","BSTAR":"-0.00026817000000","SEMIMAJOR_AXIS":"6917.849","SITE":"AFWTR"},{"TIME_SYSTEM":"UTC","GP_ID":"215530209","REV_AT_EPOCH":"3568","MEAN_ELEMENT_THEORY":"SGP4","TLE_LINE1":"1 51771U 22017D   22291.51758268  .00001830  00000-0  13307-3 0  9990","BSTAR":"0.00013307000000","SEMIMAJOR_AXIS":"6917.906","SITE":"AFWTR","INCLINATION":"53.2172","NORAD_CAT_ID":"51771","OBJECT_NAME":"STARLINK-3614","EPOCH":"2022-10-18T12:25:19.143552","EPHEMERIS_TYPE":"0","CENTER_NAME":"EARTH","MEAN_MOTION_DOT":"0.00001830","OBJECT_TYPE":"PAYLOAD","PERIOD":"95.438","MEAN_MOTION_DDOT":"0.0000000000000","RA_OF_ASC_NODE":"137.4904","REF_FRAME":"TEME","RCS_SIZE":"LARGE","APOAPSIS":"540.924","ARG_OF_PERICENTER":"49.2149","CLASSIFICATION_TYPE":"U","ELEMENT_SET_NO":"999","FILE":"3621750","MEAN_MOTION":"15.08831585","OBJECT_ID":"2022-017D","PERIAPSIS":"538.618","TLE_LINE2":"2 51771  53.2172 137.4904 0001667  49.2149 310.8987 15.08831585 35682","COUNTRY_CODE":"US","MEAN_ANOMALY":"310.8987","ECCENTRICITY":"0.00016670","DECAY_DATE":null,"LAUNCH_DATE":"2022-02-25"},{"DECAY_DATE":null,"LAUNCH_DATE":"2022-02-25","ECCENTRICITY":"0.00014160","MEAN_ANOMALY":"287.3732","TLE_LINE2":"2 51772  53.2159 138.4180 0001416  72.7415 287.3732 15.08845476 35640","PERIAPSIS":"538.749","COUNTRY_CODE":"US","ELEMENT_SET_NO":"999","FILE":"3621474","MEAN_MOTION":"15.08845476","OBJECT_ID":"2022-017E","CLASSIFICATION_TYPE":"U","ARG_OF_PERICENTER":"72.7415","REF_FRAME":"TEME","APOAPSIS":"540.708","RCS_SIZE":"LARGE","MEAN_MOTION_DDOT":"0.0000000000000","RA_OF_ASC_NODE":"138.4180","OBJECT_TYPE":"PAYLOAD","PERIOD":"95.437","CENTER_NAME":"EARTH","MEAN_MOTION_DOT":"0.00007202","OBJECT_NAME":"STARLINK-3623","EPHEMERIS_TYPE":"0","EPOCH":"2022-10-18T07:27:10.539360","NORAD_CAT_ID":"51772","INCLINATION":"53.2159","SITE":"AFWTR","SEMIMAJOR_AXIS":"6917.864","BSTAR":"0.00047004000000","GP_ID":"215498868","TIME_SYSTEM":"UTC","TLE_LINE1":"1 51772U 22017E   22291.31053865  .00007202  00000-0  47004-3 0  9990","REV_AT_EPOCH":"3564","MEAN_ELEMENT_THEORY":"SGP4"}];
